[{"OBJECT_NAME":"GOKTURK 2","OBJECT_ID":"2012-073A","EPOCH":"2026-03-09T22:26:02.222880","MEAN_MOTION":14.75437858,"ECCENTRICITY":0.00010704,"INCLINATION":97.6883,"RA_OF_ASC_NODE":271.3014,"ARG_OF_PERICENTER":59.6503,"MEAN_ANOMALY":300.4813,"EPHEMERIS_TYPE":0,"CLASSIFICATION_TYPE":"U","NORAD_CAT_ID":39030,"ELEMENT_SET_NO":999,"REV_AT_EPOCH":70987,"BSTAR":0.00022394552,"MEAN_MOTION_DOT":1.475e-5,"MEAN_MOTION_DDOT":0},{"OBJECT_NAME":"DELTA 1 DEB","OBJECT_ID":"1978-026FK","EPOCH":"2026-03-09T22:47:25.842624","MEAN_MOTION":14.5522737,"ECCENTRICITY":0.00901067,"INCLINATION":99.0664,"RA_OF_ASC_NODE":224.0246,"ARG_OF_PERICENTER":91.9155,"MEAN_ANOMALY":36.9864,"EPHEMERIS_TYPE":0,"CLASSIFICATION_TYPE":"U","NORAD_CAT_ID":13572,"ELEMENT_SET_NO":999,"REV_AT_EPOCH":29955,"BSTAR":0.0022559783,"MEAN_MOTION_DOT":0.00010268,"MEAN_MOTION_DDOT":0}]
